[{"OBJECT_NAME":"STARLINK-32248","OBJECT_ID":"2024-171V","EPOCH":"2026-03-09T22:30:46.406304","MEAN_MOTION":15.30202476,"ECCENTRICITY":8.746e-5,"INCLINATION":53.1588,"RA_OF_ASC_NODE":321.4901,"ARG_OF_PERICENTER":160.7344,"MEAN_ANOMALY":199.369,"EPHEMERIS_TYPE":0,"CLASSIFICATION_TYPE":"U","NORAD_CAT_ID":61219,"ELEMENT_SET_NO":999,"REV_AT_EPOCH":8331,"BSTAR":0.00019426748,"MEAN_MOTION_DOT":5.399e-5,"MEAN_MOTION_DDOT":0},{"OBJECT_NAME":"ASRTU-1 (AO-123)","OBJECT_ID":"2024-199AY","EPOCH":"2026-03-09T22:36:42.151392","MEAN_MOTION":15.34070057,"ECCENTRICITY":0.0012786,"INCLINATION":97.3152,"RA_OF_ASC_NODE":298.5256,"ARG_OF_PERICENTER":309.3392,"MEAN_ANOMALY":50.6717,"EPHEMERIS_TYPE":0,"CLASSIFICATION_TYPE":"U","NORAD_CAT_ID":61781,"ELEMENT_SET_NO":999,"REV_AT_EPOCH":11870,"BSTAR":0.00032267684,"MEAN_MOTION_DOT":0.00010589,"MEAN_MOTION_DDOT":0}]
